[{"OBJECT_NAME":"COSMOS 2251 DEB","OBJECT_ID":"1993-036BRZ","EPOCH":"2026-04-02T16:31:18.376032","MEAN_MOTION":14.61537025,"ECCENTRICITY":0.00709758,"INCLINATION":74.0162,"RA_OF_ASC_NODE":62.0683,"ARG_OF_PERICENTER":183.9038,"MEAN_ANOMALY":352.8627,"EPHEMERIS_TYPE":0,"CLASSIFICATION_TYPE":"U","NORAD_CAT_ID":38067,"ELEMENT_SET_NO":999,"REV_AT_EPOCH":64176,"BSTAR":0.00032538189,"MEAN_MOTION_DOT":1.642e-5,"MEAN_MOTION_DDOT":0},{"OBJECT_NAME":"COSMOS 2251 DEB","OBJECT_ID":"1993-036BSA","EPOCH":"2026-03-28T11:23:09.945888","MEAN_MOTION":14.36179829,"ECCENTRICITY":0.00261363,"INCLINATION":74.0195,"RA_OF_ASC_NODE":113.9319,"ARG_OF_PERICENTER":183.8605,"MEAN_ANOMALY":176.235,"EPHEMERIS_TYPE":0,"CLASSIFICATION_TYPE":"U","NORAD_CAT_ID":38068,"ELEMENT_SET_NO":999,"REV_AT_EPOCH":68164,"BSTAR":0.00019883759,"MEAN_MOTION_DOT":5.56e-6,"MEAN_MOTION_DDOT":0},{"OBJECT_NAME":"COSMOS 2251 DEB","OBJECT_ID":"1993-036BSM","EPOCH":"2026-03-30T20:53:11.494752","MEAN_MOTION":14.78981076,"ECCENTRICITY":0.0115062,"INCLINATION":73.9375,"RA_OF_ASC_NODE":143.8942,"ARG_OF_PERICENTER":351.652,"MEAN_ANOMALY":8.2735,"EPHEMERIS_TYPE":0,"CLASSIFICATION_TYPE":"U","NORAD_CAT_ID":38197,"ELEMENT_SET_NO":999,"REV_AT_EPOCH":87351,"BSTAR":0.0025203,"MEAN_MOTION_DOT":0.0002084,"MEAN_MOTION_DDOT":0},{"OBJECT_NAME":"COSMOS 2251 DEB","OBJECT_ID":"1993-036BSP","EPOCH":"2026-03-30T03:32:44.088000","MEAN_MOTION":13.64988367,"ECCENTRICITY":0.03681726,"INCLINATION":73.954,"RA_OF_ASC_NODE":245.6761,"ARG_OF_PERICENTER":151.2147,"MEAN_ANOMALY":210.9844,"EPHEMERIS_TYPE":0,"CLASSIFICATION_TYPE":"U","NORAD_CAT_ID":38199,"ELEMENT_SET_NO":999,"REV_AT_EPOCH":62487,"BSTAR":0.0010684603,"MEAN_MOTION_DOT":1.352e-5,"MEAN_MOTION_DDOT":0},{"OBJECT_NAME":"COSMOS 2251 DEB","OBJECT_ID":"1993-036BSY","EPOCH":"2026-04-03T02:05:27.145536","MEAN_MOTION":14.89215836,"ECCENTRICITY":0.00055898,"INCLINATION":74.0041,"RA_OF_ASC_NODE":216.8949,"ARG_OF_PERICENTER":293.603,"MEAN_ANOMALY":242.5076,"EPHEMERIS_TYPE":0,"CLASSIFICATION_TYPE":"U","NORAD_CAT_ID":38208,"ELEMENT_SET_NO":999,"REV_AT_EPOCH":72813,"BSTAR":0.0051442543,"MEAN_MOTION_DOT":0.00048992,"MEAN_MOTION_DDOT":0},{"OBJECT_NAME":"COSMOS 2251 DEB","OBJECT_ID":"1993-036BTC","EPOCH":"2026-04-02T18:01:10.942176","MEAN_MOTION":14.78458379,"ECCENTRICITY":0.00933707,"INCLINATION":74.0523,"RA_OF_ASC_NODE":218.7571,"ARG_OF_PERICENTER":256.189,"MEAN_ANOMALY":102.8883,"EPHEMERIS_TYPE":0,"CLASSIFICATION_TYPE":"U","NORAD_CAT_ID":38212,"ELEMENT_SET_NO":999,"REV_AT_EPOCH":82950,"BSTAR":0.0005125118,"MEAN_MOTION_DOT":3.986e-5,"MEAN_MOTION_DDOT":0},{"OBJECT_NAME":"COSMOS 2251 DEB","OBJECT_ID":"1993-036BTL","EPOCH":"2026-04-03T00:29:14.177472","MEAN_MOTION":15.02032212,"ECCENTRICITY":0.00021219,"INCLINATION":74.01,"RA_OF_ASC_NODE":202.6698,"ARG_OF_PERICENTER":264.7306,"MEAN_ANOMALY":95.3639,"EPHEMERIS_TYPE":0,"CLASSIFICATION_TYPE":"U","NORAD_CAT_ID":38220,"ELEMENT_SET_NO":999,"REV_AT_EPOCH":73036,"BSTAR":0.0039911423,"MEAN_MOTION_DOT":0.00052724,"MEAN_MOTION_DDOT":0},{"OBJECT_NAME":"COSMOS 2251 DEB","OBJECT_ID":"1993-036BTP","EPOCH":"2026-03-28T23:52:59.974176","MEAN_MOTION":14.39555399,"ECCENTRICITY":0.00810534,"INCLINATION":74.0098,"RA_OF_ASC_NODE":347.8932,"ARG_OF_PERICENTER":73.6907,"MEAN_ANOMALY":303.9472,"EPHEMERIS_TYPE":0,"CLASSIFICATION_TYPE":"U","NORAD_CAT_ID":38479,"ELEMENT_SET_NO":999,"REV_AT_EPOCH":66216,"BSTAR":0.0016612471,"MEAN_MOTION_DOT":5.367e-5,"MEAN_MOTION_DDOT":0},{"OBJECT_NAME":"COSMOS 2251 DEB","OBJECT_ID":"1993-036BTR","EPOCH":"2026-04-03T12:06:42.892704","MEAN_MOTION":13.95392394,"ECCENTRICITY":0.02272096,"INCLINATION":73.9323,"RA_OF_ASC_NODE":174.3131,"ARG_OF_PERICENTER":92.4696,"MEAN_ANOMALY":270.2465,"EPHEMERIS_TYPE":0,"CLASSIFICATION_TYPE":"U","NORAD_CAT_ID":38481,"ELEMENT_SET_NO":999,"REV_AT_EPOCH":60619,"BSTAR":0.0015146267,"MEAN_MOTION_DOT":2.525e-5,"MEAN_MOTION_DDOT":0},{"OBJECT_NAME":"COSMOS 2251 DEB","OBJECT_ID":"1993-036BTT","EPOCH":"2026-03-30T11:58:41.666304","MEAN_MOTION":14.29379376,"ECCENTRICITY":0.011438,"INCLINATION":74.2612,"RA_OF_ASC_NODE":178.7699,"ARG_OF_PERICENTER":252.1139,"MEAN_ANOMALY":106.7512,"EPHEMERIS_TYPE":0,"CLASSIFICATION_TYPE":"U","NORAD_CAT_ID":38483,"ELEMENT_SET_NO":999,"REV_AT_EPOCH":65017,"BSTAR":0.0012458903,"MEAN_MOTION_DOT":3.384e-5,"MEAN_MOTION_DDOT":0},{"OBJECT_NAME":"COSMOS 2251 DEB","OBJECT_ID":"1993-036BTW","EPOCH":"2026-04-03T09:30:56.228832","MEAN_MOTION":14.7755382,"ECCENTRICITY":0.00312433,"INCLINATION":73.9416,"RA_OF_ASC_NODE":345.2254,"ARG_OF_PERICENTER":111.0767,"MEAN_ANOMALY":7.7778,"EPHEMERIS_TYPE":0,"CLASSIFICATION_TYPE":"U","NORAD_CAT_ID":38486,"ELEMENT_SET_NO":999,"REV_AT_EPOCH":77081,"BSTAR":0.0028954693,"MEAN_MOTION_DOT":0.00020876,"MEAN_MOTION_DDOT":0},{"OBJECT_NAME":"COSMOS 2251 DEB","OBJECT_ID":"1993-036BTX","EPOCH":"2026-03-29T22:27:32.061600","MEAN_MOTION":15.29864296,"ECCENTRICITY":0.00264419,"INCLINATION":73.9688,"RA_OF_ASC_NODE":167.1405,"ARG_OF_PERICENTER":305.9797,"MEAN_ANOMALY":53.8953,"EPHEMERIS_TYPE":0,"CLASSIFICATION_TYPE":"U","NORAD_CAT_ID":38487,"ELEMENT_SET_NO":999,"REV_AT_EPOCH":68432,"BSTAR":0.0027924139,"MEAN_MOTION_DOT":0.00082486,"MEAN_MOTION_DDOT":0},{"OBJECT_NAME":"COSMOS 2251 DEB","OBJECT_ID":"1993-036BUC","EPOCH":"2026-03-31T04:53:45.649248","MEAN_MOTION":14.95558083,"ECCENTRICITY":0.00397675,"INCLINATION":73.996,"RA_OF_ASC_NODE":277.9291,"ARG_OF_PERICENTER":51.0573,"MEAN_ANOMALY":309.4144,"EPHEMERIS_TYPE":0,"CLASSIFICATION_TYPE":"U","NORAD_CAT_ID":39546,"ELEMENT_SET_NO":999,"REV_AT_EPOCH":66056,"BSTAR":0.0015919179,"MEAN_MOTION_DOT":0.00017948,"MEAN_MOTION_DDOT":0},{"OBJECT_NAME":"COSMOS 2251 DEB","OBJECT_ID":"1993-036BUD","EPOCH":"2026-03-28T22:37:34.032864","MEAN_MOTION":15.18081519,"ECCENTRICITY":0.0011747,"INCLINATION":74.0054,"RA_OF_ASC_NODE":158.6364,"ARG_OF_PERICENTER":290.162,"MEAN_ANOMALY":245.0652,"EPHEMERIS_TYPE":0,"CLASSIFICATION_TYPE":"U","NORAD_CAT_ID":39547,"ELEMENT_SET_NO":999,"REV_AT_EPOCH":65628,"BSTAR":0.0040281,"MEAN_MOTION_DOT":0.00083175,"MEAN_MOTION_DDOT":0},{"OBJECT_NAME":"COSMOS 2251 DEB","OBJECT_ID":"1993-036BUK","EPOCH":"2026-04-02T20:31:28.393536","MEAN_MOTION":14.00354988,"ECCENTRICITY":0.02071193,"INCLINATION":74.0267,"RA_OF_ASC_NODE":137.4638,"ARG_OF_PERICENTER":248.0346,"MEAN_ANOMALY":109.8663,"EPHEMERIS_TYPE":0,"CLASSIFICATION_TYPE":"U","NORAD_CAT_ID":39553,"ELEMENT_SET_NO":999,"REV_AT_EPOCH":77172,"BSTAR":0.0011380422,"MEAN_MOTION_DOT":2.004e-5,"MEAN_MOTION_DDOT":0},{"OBJECT_NAME":"COSMOS 2251 DEB","OBJECT_ID":"1993-036BUL","EPOCH":"2026-04-03T19:12:10.903680","MEAN_MOTION":15.26523984,"ECCENTRICITY":0.00135724,"INCLINATION":74.0088,"RA_OF_ASC_NODE":30.1497,"ARG_OF_PERICENTER":190.0527,"MEAN_ANOMALY":170.0405,"EPHEMERIS_TYPE":0,"CLASSIFICATION_TYPE":"U","NORAD_CAT_ID":39554,"ELEMENT_SET_NO":999,"REV_AT_EPOCH":66085,"BSTAR":0.0037916821,"MEAN_MOTION_DOT":0.00100654,"MEAN_MOTION_DDOT":0},{"OBJECT_NAME":"COSMOS 2251 DEB","OBJECT_ID":"1993-036BUN","EPOCH":"2026-04-02T13:05:24.926496","MEAN_MOTION":14.62739503,"ECCENTRICITY":0.01321984,"INCLINATION":73.9332,"RA_OF_ASC_NODE":33.7828,"ARG_OF_PERICENTER":124.4909,"MEAN_ANOMALY":236.8828,"EPHEMERIS_TYPE":0,"CLASSIFICATION_TYPE":"U","NORAD_CAT_ID":39583,"ELEMENT_SET_NO":999,"REV_AT_EPOCH":63398,"BSTAR":0.0020931859,"MEAN_MOTION_DOT":0.0001209,"MEAN_MOTION_DDOT":0},{"OBJECT_NAME":"COSMOS 2251 DEB","OBJECT_ID":"1993-036BUQ","EPOCH":"2026-03-25T18:35:07.551744","MEAN_MOTION":14.58961665,"ECCENTRICITY":0.00673549,"INCLINATION":74.0385,"RA_OF_ASC_NODE":105.1324,"ARG_OF_PERICENTER":201.8321,"MEAN_ANOMALY":157.9973,"EPHEMERIS_TYPE":0,"CLASSIFICATION_TYPE":"U","NORAD_CAT_ID":39585,"ELEMENT_SET_NO":999,"REV_AT_EPOCH":64023,"BSTAR":0.00018172655,"MEAN_MOTION_DOT":8.48e-6,"MEAN_MOTION_DDOT":0},{"OBJECT_NAME":"COSMOS 2251 DEB","OBJECT_ID":"1993-036BUR","EPOCH":"2026-03-30T14:32:07.804032","MEAN_MOTION":14.2145759,"ECCENTRICITY":0.0100815,"INCLINATION":74.0108,"RA_OF_ASC_NODE":34.5535,"ARG_OF_PERICENTER":145.715,"MEAN_ANOMALY":33.0187,"EPHEMERIS_TYPE":0,"CLASSIFICATION_TYPE":"U","NORAD_CAT_ID":39586,"ELEMENT_SET_NO":999,"REV_AT_EPOCH":62504,"BSTAR":0.0004253631,"MEAN_MOTION_DOT":9.55e-6,"MEAN_MOTION_DDOT":0},{"OBJECT_NAME":"COSMOS 2251 DEB","OBJECT_ID":"1993-036BUW","EPOCH":"2026-04-03T02:50:14.129376","MEAN_MOTION":14.42146762,"ECCENTRICITY":0.00286357,"INCLINATION":74.0211,"RA_OF_ASC_NODE":40.1029,"ARG_OF_PERICENTER":131.8267,"MEAN_ANOMALY":246.1169,"EPHEMERIS_TYPE":0,"CLASSIFICATION_TYPE":"U","NORAD_CAT_ID":39591,"ELEMENT_SET_NO":999,"REV_AT_EPOCH":63382,"BSTAR":0.00060732733,"MEAN_MOTION_DOT":1.982e-5,"MEAN_MOTION_DDOT":0},{"OBJECT_NAME":"COSMOS 2251 DEB","OBJECT_ID":"1993-036BUX","EPOCH":"2026-04-03T13:39:57.849120","MEAN_MOTION":14.41896318,"ECCENTRICITY":0.0014995,"INCLINATION":74.0322,"RA_OF_ASC_NODE":41.5429,"ARG_OF_PERICENTER":106.6309,"MEAN_ANOMALY":253.6494,"EPHEMERIS_TYPE":0,"CLASSIFICATION_TYPE":"U","NORAD_CAT_ID":40218,"ELEMENT_SET_NO":999,"REV_AT_EPOCH":60473,"BSTAR":0.00059342,"MEAN_MOTION_DOT":1.919e-5,"MEAN_MOTION_DDOT":0},{"OBJECT_NAME":"COSMOS 2251 DEB","OBJECT_ID":"1993-036BVC","EPOCH":"2026-03-31T08:21:40.385376","MEAN_MOTION":15.21599898,"ECCENTRICITY":0.00120559,"INCLINATION":73.93,"RA_OF_ASC_NODE":222.6275,"ARG_OF_PERICENTER":4.3226,"MEAN_ANOMALY":21.4778,"EPHEMERIS_TYPE":0,"CLASSIFICATION_TYPE":"U","NORAD_CAT_ID":40223,"ELEMENT_SET_NO":999,"REV_AT_EPOCH":61015,"BSTAR":0.006178607,"MEAN_MOTION_DOT":0.00142454,"MEAN_MOTION_DDOT":0},{"OBJECT_NAME":"COSMOS 2251 DEB","OBJECT_ID":"1993-036BVH","EPOCH":"2026-04-02T04:24:19.246176","MEAN_MOTION":14.41245649,"ECCENTRICITY":0.00217234,"INCLINATION":74.0546,"RA_OF_ASC_NODE":56.3173,"ARG_OF_PERICENTER":94.8916,"MEAN_ANOMALY":277.1784,"EPHEMERIS_TYPE":0,"CLASSIFICATION_TYPE":"U","NORAD_CAT_ID":40228,"ELEMENT_SET_NO":999,"REV_AT_EPOCH":60512,"BSTAR":0.00044017902,"MEAN_MOTION_DOT":1.4e-5,"MEAN_MOTION_DDOT":0}]
